start=new Date('2022-08-19T00:00:00.000Z').valueOf();
sats=[{"RA_OF_ASC_NODE":"169.5304","FILE":"3539615","BSTAR":"-0.00126750000000","SEMIMAJOR_AXIS":"6917.806","GP_ID":"210478079","TLE_LINE2":"2 52307  53.2182 169.5304 0001691  68.2943 104.7342 15.08864207  1303","INCLINATION":"53.2182","MEAN_ANOMALY":"104.7342","DECAY_DATE":null,"OBJECT_ID":"2022-041AY","NORAD_CAT_ID":"52307","CENTER_NAME":"EARTH","LAUNCH_DATE":"2022-04-21","ARG_OF_PERICENTER":"68.2943","REV_AT_EPOCH":"130","OBJECT_TYPE":"PAYLOAD","CLASSIFICATION_TYPE":"U","MEAN_ELEMENT_THEORY":"SGP4","MEAN_MOTION_DOT":"-0.00020417","PERIOD":"95.436","OBJECT_NAME":"STARLINK-3755","ECCENTRICITY":"0.00016910","APOAPSIS":"540.841","MEAN_MOTION":"15.08864207","RCS_SIZE":"LARGE","REF_FRAME":"TEME","TIME_SYSTEM":"UTC","ELEMENT_SET_NO":"999","MEAN_MOTION_DDOT":"0.0000000000000","PERIAPSIS":"538.502","EPHEMERIS_TYPE":"0","COUNTRY_CODE":"US","EPOCH":"2022-08-18T22:00:00.999936","SITE":"AFETR","TLE_LINE1":"1 52307U 22041AY  22230.91667824 -.00020417  00000-0 -12675-2 0  9997"},{"DECAY_DATE":null,"MEAN_ANOMALY":"225.9961","NORAD_CAT_ID":"52308","OBJECT_ID":"2022-041AZ","FILE":"3539615","RA_OF_ASC_NODE":"159.5373","INCLINATION":"53.2137","TLE_LINE2":"2 52308  53.2137 159.5373 0001913  61.9919 225.9961 15.08890464  1306","GP_ID":"210478351","SEMIMAJOR_AXIS":"6917.726","BSTAR":"-0.00377020000000","CLASSIFICATION_TYPE":"U","MEAN_ELEMENT_THEORY":"SGP4","REV_AT_EPOCH":"130","ARG_OF_PERICENTER":"61.9919","LAUNCH_DATE":"2022-04-21","CENTER_NAME":"EARTH","OBJECT_TYPE":"PAYLOAD","REF_FRAME":"TEME","MEAN_MOTION_DDOT":"0.0000000000000","ELEMENT_SET_NO":"999","TIME_SYSTEM":"UTC","PERIOD":"95.434","ECCENTRICITY":"0.00019130","MEAN_MOTION_DOT":"-0.00059876","OBJECT_NAME":"STARLINK-3745","MEAN_MOTION":"15.08890464","RCS_SIZE":"LARGE","APOAPSIS":"540.915","EPOCH":"2022-08-18T22:00:00.999936","COUNTRY_CODE":"US","TLE_LINE1":"1 52308U 22041AZ  22230.91667824 -.00059876  00000-0 -37702-2 0  9997","SITE":"AFETR","EPHEMERIS_TYPE":"0","PERIAPSIS":"538.268"},{"REF_FRAME":"TEME","ELEMENT_SET_NO":"999","TIME_SYSTEM":"UTC","MEAN_MOTION_DDOT":"0.0000000000000","PERIOD":"95.436","OBJECT_NAME":"STARLINK-3756","MEAN_MOTION_DOT":"-0.00014410","ECCENTRICITY":"0.00020570","APOAPSIS":"541.088","RCS_SIZE":"LARGE","MEAN_MOTION":"15.08866210","EPOCH":"2022-08-18T22:00:00.999936","COUNTRY_CODE":"US","TLE_LINE1":"1 52309U 22041BA  22230.91667824 -.00014410  00000-0 -88839-3 0  9991","SITE":"AFETR","EPHEMERIS_TYPE":"0","PERIAPSIS":"538.242","DECAY_DATE":null,"MEAN_ANOMALY":"209.5898","NORAD_CAT_ID":"52309","OBJECT_ID":"2022-041BA","FILE":"3539615","RA_OF_ASC_NODE":"159.5389","GP_ID":"210477532","SEMIMAJOR_AXIS":"6917.800","BSTAR":"-0.00088839000000","INCLINATION":"53.2148","TLE_LINE2":"2 52309  53.2148 159.5389 0002057  58.4330 209.5898 15.08866210  1303","CLASSIFICATION_TYPE":"U","MEAN_ELEMENT_THEORY":"SGP4","LAUNCH_DATE":"2022-04-21","ARG_OF_PERICENTER":"58.4330","CENTER_NAME":"EARTH","REV_AT_EPOCH":"130","OBJECT_TYPE":"PAYLOAD"},{"REF_FRAME":"TEME","ELEMENT_SET_NO":"999","TIME_SYSTEM":"UTC","MEAN_MOTION_DDOT":"0.0000000000000","PERIOD":"95.438","MEAN_MOTION_DOT":"-0.00010646","OBJECT_NAME":"STARLINK-3688","ECCENTRICITY":"0.00016300","APOAPSIS":"540.880","RCS_SIZE":"LARGE","MEAN_MOTION":"15.08837842","EPOCH":"2022-08-18T22:00:00.999936","COUNTRY_CODE":"US","TLE_LINE1":"1 52310U 22041BB  22230.91667824 -.00010646  00000-0 -65181-3 0  9995","SITE":"AFETR","EPHEMERIS_TYPE":"0","PERIAPSIS":"538.624","DECAY_DATE":null,"MEAN_ANOMALY":"257.3350","NORAD_CAT_ID":"52310","OBJECT_ID":"2022-041BB","FILE":"3539615","RA_OF_ASC_NODE":"159.5373","GP_ID":"210477805","SEMIMAJOR_AXIS":"6917.887","BSTAR":"-0.00065181000000","INCLINATION":"53.2156","TLE_LINE2":"2 52310  53.2156 159.5373 0001630  65.4740 257.3350 15.08837842  1309","CLASSIFICATION_TYPE":"U","MEAN_ELEMENT_THEORY":"SGP4","LAUNCH_DATE":"2022-04-21","ARG_OF_PERICENTER":"65.4740","CENTER_NAME":"EARTH","REV_AT_EPOCH":"130","OBJECT_TYPE":"PAYLOAD"},{"OBJECT_ID":"2022-041BC","NORAD_CAT_ID":"52311","MEAN_ANOMALY":"315.7339","DECAY_DATE":null,"BSTAR":"-0.00097918000000","GP_ID":"210477669","SEMIMAJOR_AXIS":"6922.805","TLE_LINE2":"2 52311  53.2137 159.4192 0001952  53.7836 315.7339 15.07230390  1300","INCLINATION":"53.2137","RA_OF_ASC_NODE":"159.4192","FILE":"3539615","MEAN_ELEMENT_THEORY":"SGP4","CLASSIFICATION_TYPE":"U","OBJECT_TYPE":"PAYLOAD","CENTER_NAME":"EARTH","LAUNCH_DATE":"2022-04-21","ARG_OF_PERICENTER":"53.7836","REV_AT_EPOCH":"130","TIME_SYSTEM":"UTC","ELEMENT_SET_NO":"999","MEAN_MOTION_DDOT":"0.0000000000000","REF_FRAME":"TEME","APOAPSIS":"546.021","MEAN_MOTION":"15.07230390","RCS_SIZE":"LARGE","OBJECT_NAME":"STARLINK-3750","PERIOD":"95.539","MEAN_MOTION_DOT":"-0.00015168","ECCENTRICITY":"0.00019520","SITE":"AFETR","TLE_LINE1":"1 52311U 22041BC  22230.91667824 -.00015168  00000-0 -97918-3 0  9993","COUNTRY_CODE":"US","EPOCH":"2022-08-18T22:00:00.999936","PERIAPSIS":"543.318","EPHEMERIS_TYPE":"0"},{"SITE":"AFETR","TLE_LINE1":"1 52312U 22041BD  22230.91667824 -.00031678  00000-0 -19790-2 0  9999","COUNTRY_CODE":"US","EPOCH":"2022-08-18T22:00:00.999936","PERIAPSIS":"538.234","EPHEMERIS_TYPE":"0","TIME_SYSTEM":"UTC","ELEMENT_SET_NO":"999","MEAN_MOTION_DDOT":"0.0000000000000","REF_FRAME":"TEME","APOAPSIS":"541.033","MEAN_MOTION":"15.08876748","RCS_SIZE":"LARGE","ECCENTRICITY":"0.00020230","PERIOD":"95.435","MEAN_MOTION_DOT":"-0.00031678","OBJECT_NAME":"STARLINK-3752","MEAN_ELEMENT_THEORY":"SGP4","CLASSIFICATION_TYPE":"U","OBJECT_TYPE":"PAYLOAD","CENTER_NAME":"EARTH","ARG_OF_PERICENTER":"45.6936","LAUNCH_DATE":"2022-04-21","REV_AT_EPOCH":"130","OBJECT_ID":"2022-041BD","NORAD_CAT_ID":"52312","MEAN_ANOMALY":"97.1259","DECAY_DATE":null,"BSTAR":"-0.00197900000000","SEMIMAJOR_AXIS":"6917.768","GP_ID":"210478486","TLE_LINE2":"2 52312  53.2178 159.5237 0002023  45.6936  97.1259 15.08876748  1304","INCLINATION":"53.2178","RA_OF_ASC_NODE":"159.5237","FILE":"3539615"},{"REF_FRAME":"TEME","TIME_SYSTEM":"UTC","ELEMENT_SET_NO":"999","MEAN_MOTION_DDOT":"0.0000000000000","PERIOD":"95.436","ECCENTRICITY":"0.00017490","MEAN_MOTION_DOT":"-0.00012356","OBJECT_NAME":"STARLINK-3749","APOAPSIS":"540.879","RCS_SIZE":"LARGE","MEAN_MOTION":"15.08864958","COUNTRY_CODE":"US","EPOCH":"2022-08-18T22:00:00.999936","SITE":"AFETR","TLE_LINE1":"1 52313U 22041BE  22230.91667824 -.00012356  00000-0 -75902-3 0  9990","PERIAPSIS":"538.459","EPHEMERIS_TYPE":"0","MEAN_ANOMALY":"94.4956","DECAY_DATE":null,"OBJECT_ID":"2022-041BE","NORAD_CAT_ID":"52313","FILE":"3539615","RA_OF_ASC_NODE":"159.5233","BSTAR":"-0.00075902000000","GP_ID":"210477943","SEMIMAJOR_AXIS":"6917.804","TLE_LINE2":"2 52313  53.2175 159.5233 0001749  53.5394  94.4956 15.08864958  1302","INCLINATION":"53.2175","CLASSIFICATION_TYPE":"U","MEAN_ELEMENT_THEORY":"SGP4","CENTER_NAME":"EARTH","ARG_OF_PERICENTER":"53.5394","LAUNCH_DATE":"2022-04-21","REV_AT_EPOCH":"130","OBJECT_TYPE":"PAYLOAD"},{"ELEMENT_SET_NO":"999","TIME_SYSTEM":"UTC","MEAN_MOTION_DDOT":"0.0000000000000","REF_FRAME":"TEME","APOAPSIS":"541.154","MEAN_MOTION":"15.08830136","RCS_SIZE":"LARGE","PERIOD":"95.438","MEAN_MOTION_DOT":"0.00017427","ECCENTRICITY":"0.00019930","OBJECT_NAME":"STARLINK-3889","TLE_LINE1":"1 52331U 22045A   22230.91667824  .00017427  00000-0  11106-2 0  9991","SITE":"AFETR","EPOCH":"2022-08-18T22:00:00.999936","COUNTRY_CODE":"US","EPHEMERIS_TYPE":"0","PERIAPSIS":"538.397","NORAD_CAT_ID":"52331","OBJECT_ID":"2022-045A","DECAY_DATE":null,"MEAN_ANOMALY":"171.1880","SEMIMAJOR_AXIS":"6917.911","GP_ID":"210478353","BSTAR":"0.00111060000000","INCLINATION":"53.2155","TLE_LINE2":"2 52331  53.2155 279.5410 0001993  36.8492 171.1880 15.08830136  1304","FILE":"3539615","RA_OF_ASC_NODE":"279.5410","MEAN_ELEMENT_THEORY":"SGP4","CLASSIFICATION_TYPE":"U","OBJECT_TYPE":"PAYLOAD","LAUNCH_DATE":"2022-04-29","ARG_OF_PERICENTER":"36.8492","CENTER_NAME":"EARTH","REV_AT_EPOCH":"130"},{"PERIAPSIS":"538.418","EPHEMERIS_TYPE":"0","COUNTRY_CODE":"US","EPOCH":"2022-08-18T22:00:00.999936","SITE":"AFETR","TLE_LINE1":"1 52332U 22045B   22230.91667824  .00017876  00000-0  11384-2 0  9998","PERIOD":"95.438","ECCENTRICITY":"0.00019220","MEAN_MOTION_DOT":"0.00017876","OBJECT_NAME":"STARLINK-3831","RCS_SIZE":"LARGE","MEAN_MOTION":"15.08839395","APOAPSIS":"541.077","REF_FRAME":"TEME","MEAN_MOTION_DDOT":"0.0000000000000","TIME_SYSTEM":"UTC","ELEMENT_SET_NO":"999","REV_AT_EPOCH":"130","CENTER_NAME":"EARTH","LAUNCH_DATE":"2022-04-29","ARG_OF_PERICENTER":"40.3398","OBJECT_TYPE":"PAYLOAD","CLASSIFICATION_TYPE":"U","MEAN_ELEMENT_THEORY":"SGP4","RA_OF_ASC_NODE":"279.5321","FILE":"3539615","TLE_LINE2":"2 52332  53.2142 279.5321 0001922  40.3398 107.6619 15.08839395  1309","INCLINATION":"53.2142","BSTAR":"0.00113840000000","SEMIMAJOR_AXIS":"6917.882","GP_ID":"210477534","MEAN_ANOMALY":"107.6619","DECAY_DATE":null,"OBJECT_ID":"2022-045B","NORAD_CAT_ID":"52332"},{"PERIAPSIS":"538.652","EPHEMERIS_TYPE":"0","SITE":"AFETR","TLE_LINE1":"1 52333U 22045C   22230.91667824  .00000858  00000-0  71986-4 0  9997","COUNTRY_CODE":"US","EPOCH":"2022-08-18T22:00:00.999936","MEAN_MOTION":"15.08832301","RCS_SIZE":"LARGE","APOAPSIS":"540.885","OBJECT_NAME":"STARLINK-3847","PERIOD":"95.438","MEAN_MOTION_DOT":"0.00000858","ECCENTRICITY":"0.00016140","MEAN_MOTION_DDOT":"0.0000000000000","TIME_SYSTEM":"UTC","ELEMENT_SET_NO":"999","REF_FRAME":"TEME","OBJECT_TYPE":"PAYLOAD","REV_AT_EPOCH":"130","CENTER_NAME":"EARTH","ARG_OF_PERICENTER":"50.9994","LAUNCH_DATE":"2022-04-29","MEAN_ELEMENT_THEORY":"SGP4","CLASSIFICATION_TYPE":"U","TLE_LINE2":"2 52333  53.2141 279.5322 0001614  50.9994 117.0490 15.08832301  1309","INCLINATION":"53.2141","BSTAR":"0.00007198600000","GP_ID":"210477807","SEMIMAJOR_AXIS":"6917.904","RA_OF_ASC_NODE":"279.5322","FILE":"3539615","OBJECT_ID":"2022-045C","NORAD_CAT_ID":"52333","MEAN_ANOMALY":"117.0490","DECAY_DATE":null}];
